[
    {
        "Altitude(m)": 611965.2364431125,
        "Argument of Periapsis(deg)": 0.0,
        "Eccentricity": 0.0,
        "Inclination(deg)": 60.0,
        "Latitude(deg)": 59.14031642279479,
        "Longitude(deg)": 98.9698110218267,
        "Mean Anomaly(deg)": 81.8182,
        "RAAN(deg)": 125.00000000000001,
        "Satellite Name": "Test1 555",
        "Satellite Number": 555,
        "Semi-Major Axis(m)": 6980739.136638005,
        "Time(s)": 0
    },
    {
        "Altitude(m)": 611995.8618274394,
        "Argument of Periapsis(deg)": 0.00010418945913296404,
        "Eccentricity": 0.0,
        "Inclination(deg)": 60.0,
        "Latitude(deg)": 59.28341645556525,
        "Longitude(deg)": 100.10317830167084,
        "Mean Anomaly(deg)": 82.43830614546184,
        "RAAN(deg)": 124.99957995086027,
        "Satellite Name": "Test1 555",
        "Satellite Number": 555,
        "Semi-Major Axis(m)": 6980739.136638005,
        "Time(s)": 10
    }
]